{"fetched_at":"2026-03-29T02:12:04Z","count":15717,"tles":[{"name":"STARLINK-2383","line1":"1 47802U 21018R   26087.50496337 -.00005598  00000+0 -18185-3 0  9997","line2":"2 47802  53.1579 167.8443 0001382  82.7216 277.3942 15.29345787279436","category":"Starlink"}]}